{"type": "Feature", "properties": {"name": "dhaka_r3", "distance_m": 2184.5, "duration_s": 194, "generated_from": "https://router.project-osrm.org"}, "geometry": {"coordinates": [[90.389927, 23.719477], [90.389796, 23.719824], [90.389736, 23.720054], [90.389686, 23.720205], [90.389502, 23.720541], [90.389399, 23.720695], [90.38927, 23.720862], [90.38926, 23.720875], [90.389193, 23.721122], [90.389091, 23.721446], [90.388939, 23.721854], [90.388852, 23.722193], [90.388884, 23.72218], [90.388923, 23.722171], [90.388955, 23.722173], [90.388987, 23.722179], [90.38904, 23.722199], [90.389455, 23.722366], [90.389517, 23.722391], [90.389589, 23.722401], [90.389645, 23.722402], [90.389701, 23.722396], [90.389762, 23.722386], [90.389808, 23.722372], [90.389896, 23.722333], [90.389975, 23.722286], [90.390087, 23.722204], [90.390155, 23.722159], [90.390178, 23.72215], [90.390204, 23.722144], [90.390244, 23.722143], [90.390294, 23.722152], [90.390382, 23.722178], [90.390471, 23.722214], [90.390581, 23.72226], [90.390631, 23.722274], [90.390669, 23.72228], [90.390707, 23.72228], [90.391501, 23.722202], [90.391717, 23.722199], [90.39174, 23.722204], [90.391756, 23.722213], [90.391767, 23.722224], [90.391788, 23.722265], [90.39182, 23.722382], [90.391833, 23.722414], [90.391847, 23.722433], [90.391861, 23.722445], [90.391869, 23.722449], [90.39188, 23.722452], [90.392592, 23.722466], [90.392852, 23.72247], [90.392866, 23.722471], [90.392877, 23.722476], [90.392955, 23.722543], [90.392967, 23.722567], [90.39297, 23.722579], [90.392969, 23.722592], [90.39286, 23.722826], [90.392849, 23.722879], [90.392868, 23.722959], [90.39293, 23.723124], [90.392959, 23.723161], [90.392991, 23.723182], [90.393018, 23.723193], [90.393053, 23.723197], [90.393092, 23.723193], [90.393141, 23.723181], [90.393936, 23.722976], [90.394248, 23.722907], [90.394468, 23.722861], [90.394735, 23.722801], [90.394806, 23.722775], [90.395106, 23.722643], [90.395433, 23.722487], [90.395695, 23.722361], [90.396247, 23.722276], [90.396878, 23.722091], [90.397217, 23.721968], [90.397512, 23.721772], [90.397555, 23.721642], [90.397654, 23.721347], [90.397706, 23.721184], [90.397826, 23.721013], [90.397997, 23.720856], [90.398077, 23.720784], [90.398184, 23.720685], [90.398221, 23.720608], [90.398238, 23.72048], [90.398235, 23.720352], [90.398225, 23.720243], [90.398241, 23.720216], [90.398333, 23.720121], [90.398366, 23.720108], [90.398347, 23.720014], [90.398316, 23.71943], [90.398297, 23.718911], [90.398306, 23.71871], [90.398357, 23.718303], [90.398385, 23.718304], [90.398441, 23.718305], [90.398672, 23.718312], [90.398803, 23.71836], [90.398872, 23.718371], [90.398983, 23.718382], [90.399122, 23.718419], [90.399279, 23.718462], [90.399727, 23.718559], [90.399888, 23.718549], [90.400051, 23.718522], [90.400216, 23.718476], [90.400257, 23.718623], [90.400325, 23.718721], [90.400364, 23.71877], [90.400496, 23.718933], [90.400564, 23.719006], [90.400573, 23.719014], [90.40076, 23.719144], [90.400889, 23.719195], [90.401061, 23.719297], [90.401317, 23.719354], [90.401538, 23.71942], [90.401551, 23.719415], [90.401713, 23.719412], [90.402001, 23.719443], [90.402006, 23.719443]], "type": "LineString"}}