{"type": "Feature", "properties": {"name": "dhaka_r1", "distance_m": 3180.9, "duration_s": 301.2, "generated_from": "https://router.project-osrm.org"}, "geometry": {"coordinates": [[90.380154, 23.713669], [90.380336, 23.713366], [90.380424, 23.713066], [90.380528, 23.712935], [90.380847, 23.712946], [90.38092, 23.713065], [90.381039, 23.713234], [90.381073, 23.713289], [90.381098, 23.713341], [90.38112, 23.713395], [90.381438, 23.714463], [90.381717, 23.714392], [90.382209, 23.714273], [90.382441, 23.714237], [90.382623, 23.714246], [90.382846, 23.714293], [90.383089, 23.714304], [90.383223, 23.71423], [90.383425, 23.714066], [90.383703, 23.713827], [90.383874, 23.713734], [90.384176, 23.713584], [90.384439, 23.713512], [90.384593, 23.713494], [90.384748, 23.713489], [90.385017, 23.713516], [90.385265, 23.713578], [90.385395, 23.713594], [90.385532, 23.713594], [90.385711, 23.713552], [90.385865, 23.713489], [90.385964, 23.713409], [90.386049, 23.713348], [90.386233, 23.713164], [90.386349, 23.71305], [90.386538, 23.712851], [90.386688, 23.712695], [90.387006, 23.712553], [90.387232, 23.712431], [90.387365, 23.712335], [90.38747, 23.712214], [90.387517, 23.712144], [90.387673, 23.711973], [90.387761, 23.71189], [90.387828, 23.711865], [90.387913, 23.711848], [90.38809, 23.711868], [90.388305, 23.711905], [90.388596, 23.711949], [90.388911, 23.711997], [90.389298, 23.712025], [90.389615, 23.71208], [90.389938, 23.712159], [90.390107, 23.712198], [90.390225, 23.712227], [90.390305, 23.712225], [90.39039, 23.712201], [90.390716, 23.711992], [90.39115, 23.711648], [90.391213, 23.711603], [90.391482, 23.711381], [90.391593, 23.711342], [90.3922, 23.711218], [90.392735, 23.711147], [90.392837, 23.711151], [90.392921, 23.711164], [90.393039, 23.711201], [90.393306, 23.711324], [90.39345, 23.711352], [90.39368, 23.711363], [90.394485, 23.711357], [90.395107, 23.711339], [90.395296, 23.71134], [90.39565, 23.711364], [90.395983, 23.711394], [90.396047, 23.711402], [90.39634, 23.711404], [90.396819, 23.711383], [90.39697, 23.71139], [90.397433, 23.711454], [90.397559, 23.711454], [90.397793, 23.711432], [90.397932, 23.711433], [90.398229, 23.711474], [90.398323, 23.711467], [90.398432, 23.711437], [90.399243, 23.711122], [90.399857, 23.710858], [90.401027, 23.710363], [90.401377, 23.71018], [90.401694, 23.710017], [90.402086, 23.709808], [90.402146, 23.709778], [90.402688, 23.710698], [90.402895, 23.711182], [90.403011, 23.711589], [90.403054, 23.711807], [90.403166, 23.712422], [90.403233, 23.71258], [90.403333, 23.712708], [90.403615, 23.713031], [90.403839, 23.713184], [90.404108, 23.71335], [90.404539, 23.713578], [90.404748, 23.713654], [90.405097, 23.713787]], "type": "LineString"}}