{"type": "Feature", "properties": {"name": "dhaka_r2", "distance_m": 3936.4, "duration_s": 366.8, "generated_from": "https://router.project-osrm.org"}, "geometry": {"coordinates": [[90.404771, 23.724959], [90.404785, 23.724895], [90.404813, 23.72483], [90.404847, 23.724784], [90.404891, 23.724747], [90.404967, 23.724685], [90.405102, 23.724615], [90.405227, 23.724617], [90.405302, 23.72462], [90.405328, 23.724532], [90.405371, 23.724365], [90.405413, 23.72407], [90.405503, 23.723282], [90.405521, 23.723153], [90.405543, 23.723031], [90.405558, 23.722971], [90.405642, 23.722563], [90.405663, 23.722427], [90.405677, 23.722357], [90.405691, 23.722289], [90.405708, 23.722211], [90.405745, 23.722056], [90.405783, 23.721835], [90.405852, 23.721434], [90.405867, 23.721305], [90.405882, 23.721145], [90.405874, 23.721111], [90.405874, 23.720991], [90.405873, 23.720789], [90.405873, 23.720777], [90.40595, 23.720644], [90.406126, 23.720345], [90.406474, 23.719799], [90.406528, 23.719699], [90.406561, 23.719618], [90.406918, 23.719126], [90.407038, 23.718911], [90.407076, 23.71881], [90.407109, 23.718708], [90.407126, 23.718544], [90.407126, 23.718402], [90.407122, 23.71828], [90.407058, 23.718032], [90.407035, 23.717935], [90.407003, 23.717703], [90.406985, 23.717522], [90.406961, 23.717462], [90.406911, 23.71733], [90.40689, 23.717245], [90.40688, 23.717189], [90.406871, 23.717134], [90.406856, 23.717022], [90.406833, 23.716898], [90.406815, 23.716759], [90.406812, 23.716674], [90.40682, 23.716587], [90.406841, 23.716488], [90.406858, 23.716415], [90.406871, 23.716334], [90.406878, 23.716264], [90.406882, 23.716195], [90.406893, 23.716081], [90.406898, 23.715969], [90.406899, 23.715716], [90.4069, 23.715454], [90.406895, 23.715279], [90.40689, 23.715154], [90.406889, 23.715136], [90.406869, 23.71489], [90.406823, 23.714397], [90.406827, 23.714281], [90.406548, 23.714185], [90.406091, 23.713967], [90.405868, 23.713924], [90.405773, 23.713895], [90.405657, 23.713854], [90.404957, 23.713604], [90.404565, 23.713437], [90.404162, 23.713212], [90.403795, 23.712983], [90.4036, 23.712812], [90.403429, 23.712586], [90.403367, 23.712429], [90.403312, 23.712267], [90.403229, 23.711868], [90.403194, 23.711686], [90.403105, 23.711337], [90.403024, 23.711089], [90.402935, 23.710851], [90.40282, 23.710611], [90.402551, 23.710118], [90.402425, 23.70991], [90.40226, 23.709629], [90.401691, 23.70877], [90.401391, 23.708289], [90.401176, 23.707969], [90.400744, 23.707271], [90.400536, 23.706981], [90.400344, 23.706707], [90.39984, 23.706043], [90.39962, 23.705726], [90.399464, 23.705494], [90.399305, 23.705269], [90.399114, 23.704969], [90.39835, 23.703711], [90.398076, 23.703213], [90.398115, 23.703223], [90.398132, 23.70323], [90.398373, 23.703678], [90.398529, 23.703949], [90.398813, 23.70437], [90.398847, 23.704418], [90.399335, 23.705246], [90.399653, 23.705706], [90.399703, 23.705781], [90.399781, 23.705887], [90.400082, 23.706291], [90.400439, 23.705996], [90.40056, 23.70589], [90.400675, 23.705774], [90.400801, 23.705675], [90.400868, 23.705627], [90.400897, 23.705602], [90.400988, 23.70549], [90.401165, 23.705318], [90.401403, 23.7051], [90.401762, 23.704809], [90.401913, 23.704674], [90.402292, 23.704315], [90.402472, 23.704133], [90.402574, 23.704026], [90.402882, 23.703763], [90.402992, 23.703684], [90.403121, 23.703593], [90.403419, 23.703228], [90.403979, 23.702884], [90.404296, 23.702599], [90.404755, 23.702265], [90.404803, 23.702221], [90.405012, 23.702046], [90.405032, 23.702023]], "type": "LineString"}}