{"type": "Feature", "properties": {"name": "lagos_r1", "distance_m": 6382, "duration_s": 483.4, "generated_from": "https://router.project-osrm.org"}, "geometry": {"coordinates": [[3.354931, 6.519944], [3.355116, 6.519719], [3.355167, 6.519674], [3.355117, 6.519429], [3.355183, 6.519379], [3.355232, 6.519312], [3.355241, 6.519256], [3.355241, 6.5192], [3.355211, 6.519132], [3.355169, 6.519073], [3.355069, 6.518979], [3.35499, 6.518851], [3.354906, 6.518802], [3.35482, 6.51874], [3.354788, 6.518723], [3.354517, 6.518551], [3.354383, 6.51845], [3.354273, 6.51803], [3.354132, 6.517391], [3.354075, 6.517165], [3.354028, 6.51693], [3.353961, 6.516734], [3.353929, 6.516696], [3.354057, 6.516584], [3.35427, 6.516386], [3.354461, 6.516205], [3.354653, 6.516027], [3.354656, 6.516022], [3.354792, 6.515891], [3.354819, 6.515865], [3.355057, 6.515655], [3.355157, 6.515559], [3.35526, 6.515449], [3.355266, 6.515441], [3.3555, 6.515202], [3.355731, 6.514955], [3.355981, 6.514682], [3.3561, 6.51455], [3.356199, 6.514442], [3.356243, 6.514394], [3.356308, 6.514341], [3.356396, 6.514272], [3.356513, 6.514206], [3.356689, 6.514137], [3.356883, 6.514075], [3.357086, 6.514001], [3.35727, 6.513935], [3.357363, 6.513894], [3.35749, 6.51383], [3.357586, 6.513775], [3.357703, 6.513676], [3.357774, 6.513587], [3.357979, 6.513374], [3.358062, 6.513268], [3.358285, 6.512981], [3.358562, 6.512748], [3.358749, 6.512568], [3.358845, 6.512484], [3.358926, 6.512394], [3.358963, 6.512326], [3.358987, 6.512267], [3.358995, 6.512115], [3.358987, 6.512042], [3.358959, 6.5119], [3.358915, 6.511781], [3.358896, 6.511728], [3.358987, 6.511702], [3.359228, 6.51162], [3.35925, 6.511612], [3.35934, 6.511575], [3.359455, 6.511518], [3.359569, 6.511436], [3.359706, 6.511339], [3.359861, 6.511183], [3.35997, 6.511071], [3.360028, 6.511005], [3.360149, 6.510835], [3.360227, 6.510761], [3.360326, 6.510691], [3.360461, 6.510621], [3.360547, 6.510586], [3.360646, 6.510542], [3.360744, 6.510514], [3.36089, 6.510486], [3.361147, 6.510436], [3.361303, 6.510411], [3.361432, 6.510387], [3.361597, 6.510353], [3.36179, 6.510308], [3.361955, 6.510278], [3.362181, 6.510232], [3.362696, 6.510118], [3.363031, 6.510046], [3.36329, 6.510001], [3.363302, 6.510069], [3.363394, 6.510425], [3.363477, 6.510701], [3.363522, 6.510826], [3.363605, 6.511055], [3.363611, 6.511071], [3.363748, 6.511494], [3.363901, 6.511979], [3.363931, 6.512049], [3.364151, 6.51273], [3.364332, 6.513302], [3.364378, 6.513457], [3.36444, 6.513642], [3.36454, 6.513956], [3.364567, 6.51404], [3.364631, 6.514231], [3.365067, 6.515543], [3.365087, 6.515604], [3.365142, 6.515769], [3.365215, 6.515935], [3.36531, 6.516088], [3.365391, 6.516205], [3.365415, 6.51624], [3.36544, 6.516274], [3.36547, 6.516302], [3.365529, 6.516356], [3.365592, 6.516411], [3.365657, 6.516446], [3.365735, 6.51647], [3.365796, 6.516478], [3.365859, 6.516487], [3.365924, 6.516442], [3.366164, 6.516317], [3.366343, 6.516201], [3.366424, 6.516168], [3.36653, 6.516135], [3.366583, 6.516123], [3.366669, 6.516115], [3.366786, 6.516118], [3.366843, 6.516132], [3.367, 6.516146], [3.367242, 6.516186], [3.367554, 6.516244], [3.367695, 6.516272], [3.367826, 6.51632], [3.367917, 6.516326], [3.367975, 6.516332], [3.368007, 6.51634], [3.368223, 6.516465], [3.368372, 6.516509], [3.368585, 6.516569], [3.36874, 6.516632], [3.368883, 6.516689], [3.368989, 6.516747], [3.369145, 6.516833], [3.369297, 6.516898], [3.369589, 6.51701], [3.369821, 6.517105], [3.370062, 6.517193], [3.370181, 6.517236], [3.370574, 6.517388], [3.370908, 6.517526], [3.371053, 6.517582], [3.37115, 6.517614], [3.37125, 6.517635], [3.371342, 6.517646], [3.371458, 6.517648], [3.371571, 6.517622], [3.371684, 6.517572], [3.371875, 6.517486], [3.372186, 6.517356], [3.372585, 6.517188], [3.372887, 6.517062], [3.373503, 6.516789], [3.37379, 6.516669], [3.374065, 6.516562], [3.37429, 6.516476], [3.374518, 6.51638], [3.374725, 6.51629], [3.374946, 6.516186], [3.37509, 6.516114], [3.375224, 6.516032], [3.375334, 6.515939], [3.37546, 6.515813], [3.37556, 6.515664], [3.375643, 6.515486], [3.375743, 6.515276], [3.375865, 6.515012], [3.376015, 6.514658], [3.376143, 6.514322], [3.376259, 6.514001], [3.376359, 6.513747], [3.376457, 6.513508], [3.376603, 6.513163], [3.376715, 6.512867], [3.376829, 6.512588], [3.376962, 6.512257], [3.377048, 6.512032], [3.377148, 6.511781], [3.377248, 6.511536], [3.377395, 6.511153], [3.377472, 6.511185], [3.3772, 6.511797], [3.377063, 6.512119], [3.376963, 6.512376], [3.376931, 6.512462], [3.376903, 6.512531], [3.376811, 6.512763], [3.376724, 6.512981], [3.376503, 6.513535], [3.376282, 6.514091], [3.376107, 6.514583], [3.376241, 6.514741], [3.376763, 6.514966], [3.377069, 6.515093], [3.377357, 6.515202], [3.377455, 6.51525], [3.377737, 6.515341], [3.377808, 6.515369], [3.378157, 6.515491], [3.381143, 6.516807], [3.381504, 6.516954], [3.381802, 6.517051], [3.382114, 6.517142], [3.382284, 6.517183], [3.382527, 6.517238], [3.382627, 6.517251], [3.383109, 6.517365], [3.383726, 6.517512], [3.383888, 6.517539], [3.384224, 6.517586], [3.384609, 6.517607], [3.384932, 6.51761], [3.385307, 6.517566], [3.385613, 6.517556], [3.385742, 6.51756], [3.38594, 6.517544], [3.386608, 6.517435], [3.38678, 6.517411], [3.386942, 6.517392], [3.387145, 6.517386], [3.38729, 6.51739], [3.387472, 6.517406], [3.387643, 6.51743], [3.387809, 6.51746], [3.388094, 6.51753], [3.388375, 6.517622], [3.38852, 6.517665], [3.388622, 6.517695], [3.38888, 6.517765], [3.389038, 6.517819], [3.389168, 6.51787], [3.389293, 6.517928], [3.389444, 6.518012], [3.389591, 6.518107], [3.389655, 6.518155], [3.389848, 6.518302], [3.389998, 6.518417], [3.38996, 6.518467], [3.389955, 6.518519], [3.389911, 6.518542], [3.389719, 6.518848]], "type": "LineString"}}