{"type": "Feature", "properties": {"name": "lagos_r2", "distance_m": 5133.6, "duration_s": 525.3, "generated_from": "https://router.project-osrm.org"}, "geometry": {"coordinates": [[3.370054, 6.534746], [3.37049, 6.534838], [3.370512, 6.534739], [3.370605, 6.534411], [3.370712, 6.534017], [3.370724, 6.533535], [3.371008, 6.533084], [3.371192, 6.533053], [3.371539, 6.533054], [3.371698, 6.533085], [3.371841, 6.533128], [3.372033, 6.533244], [3.372214, 6.533391], [3.372809, 6.533571], [3.373342, 6.533697], [3.373394, 6.533377], [3.373448, 6.533102], [3.373535, 6.532828], [3.373632, 6.532447], [3.373632, 6.532291], [3.373624, 6.531905], [3.37365, 6.531629], [3.373669, 6.531306], [3.37367, 6.531003], [3.37365, 6.530727], [3.373648, 6.530469], [3.37367, 6.5302], [3.373731, 6.529946], [3.373839, 6.529463], [3.373891, 6.529336], [3.373917, 6.529283], [3.374118, 6.528938], [3.37422, 6.52869], [3.37424, 6.528643], [3.374342, 6.528381], [3.374424, 6.528167], [3.374453, 6.528044], [3.374437, 6.527859], [3.374341, 6.5278], [3.374137, 6.527594], [3.373991, 6.527447], [3.373743, 6.527228], [3.373591, 6.52709], [3.373394, 6.526941], [3.373346, 6.526899], [3.372985, 6.526481], [3.372952, 6.526444], [3.372871, 6.526337], [3.372684, 6.526119], [3.372636, 6.526032], [3.372451, 6.525717], [3.372335, 6.525499], [3.372239, 6.525274], [3.372159, 6.52512], [3.372062, 6.524839], [3.372026, 6.52462], [3.372029, 6.524531], [3.372032, 6.524416], [3.372015, 6.524185], [3.371959, 6.523971], [3.371883, 6.523817], [3.371798, 6.523655], [3.371664, 6.52344], [3.371552, 6.523307], [3.371407, 6.523156], [3.371299, 6.52309], [3.371226, 6.522991], [3.371212, 6.522903], [3.371193, 6.522691], [3.371174, 6.522397], [3.371146, 6.52217], [3.371116, 6.521778], [3.371076, 6.521492], [3.371049, 6.521403], [3.371026, 6.521368], [3.370994, 6.521344], [3.370931, 6.521329], [3.370879, 6.521221], [3.370834, 6.521092], [3.370793, 6.520957], [3.370777, 6.520917], [3.370779, 6.520874], [3.370795, 6.520843], [3.37082, 6.52082], [3.370866, 6.520804], [3.370968, 6.520736], [3.371112, 6.520648], [3.371343, 6.520084], [3.371637, 6.519297], [3.371755, 6.519021], [3.371613, 6.518633], [3.371479, 6.518254], [3.37144, 6.518133], [3.37141, 6.51798], [3.37137, 6.517897], [3.371289, 6.517723], [3.371181, 6.517717], [3.37108, 6.517703], [3.370891, 6.517644], [3.370509, 6.517491], [3.370322, 6.517412], [3.370106, 6.51732], [3.369864, 6.517216], [3.369555, 6.517089], [3.369279, 6.51697], [3.369246, 6.516957], [3.369158, 6.516917], [3.36906, 6.516874], [3.368692, 6.516732], [3.368539, 6.516676], [3.368237, 6.516555], [3.368067, 6.516489], [3.367983, 6.516407], [3.36795, 6.516399], [3.367892, 6.516394], [3.367851, 6.516404], [3.367743, 6.516361], [3.367641, 6.516333], [3.367512, 6.516308], [3.366847, 6.516202], [3.366804, 6.516195], [3.366686, 6.516188], [3.366584, 6.516204], [3.366489, 6.516232], [3.366402, 6.516273], [3.366289, 6.516337], [3.366146, 6.516433], [3.365985, 6.516529], [3.365875, 6.51657], [3.36577, 6.516617], [3.36559, 6.516707], [3.365459, 6.516725], [3.365165, 6.516813], [3.36515, 6.516706], [3.365132, 6.516622], [3.365122, 6.516594], [3.365042, 6.516364], [3.364934, 6.516063], [3.364846, 6.515779], [3.364828, 6.515723], [3.364745, 6.515494], [3.36461, 6.51507], [3.364606, 6.515058], [3.364545, 6.514831], [3.364358, 6.514309], [3.364204, 6.513808], [3.36413, 6.513566], [3.363864, 6.512809], [3.363718, 6.51234], [3.363636, 6.512067], [3.363533, 6.511736], [3.36343, 6.511387], [3.363311, 6.511029], [3.363202, 6.510706], [3.363123, 6.51047], [3.363078, 6.510299], [3.363044, 6.510113], [3.363031, 6.510046], [3.36329, 6.510001], [3.363697, 6.509917], [3.363854, 6.509886], [3.364048, 6.509886], [3.364211, 6.509889], [3.364464, 6.509903], [3.364562, 6.509915], [3.364753, 6.509934], [3.364766, 6.509935], [3.364989, 6.509936], [3.365132, 6.509934], [3.36526, 6.509926], [3.365417, 6.509887], [3.365547, 6.509843], [3.36565, 6.509806], [3.365823, 6.509729], [3.365924, 6.509685], [3.366125, 6.509608], [3.366292, 6.509526], [3.366411, 6.50946], [3.366496, 6.509404], [3.366535, 6.509378], [3.366638, 6.509299], [3.366768, 6.509212], [3.36696, 6.509082], [3.367158, 6.508931], [3.367263, 6.508859], [3.367359, 6.508789], [3.367531, 6.508666], [3.367621, 6.50861], [3.367727, 6.508572], [3.367794, 6.508559], [3.367912, 6.508544], [3.368061, 6.508543], [3.368122, 6.508552], [3.368289, 6.508044], [3.368318, 6.507959], [3.368381, 6.507785], [3.368527, 6.507528], [3.368563, 6.507416], [3.36868, 6.507042], [3.368774, 6.506811], [3.368849, 6.506832], [3.368935, 6.506466], [3.368959, 6.506365], [3.368979, 6.506286], [3.369042, 6.506049], [3.369079, 6.505892], [3.369129, 6.505697], [3.369189, 6.505458], [3.369226, 6.505271], [3.369414, 6.505354], [3.369698, 6.505499], [3.369779, 6.505154], [3.369887, 6.504943]], "type": "LineString"}}