{"type": "Feature", "properties": {"name": "lagos_r3", "distance_m": 2868.4, "duration_s": 229.7, "generated_from": "https://router.project-osrm.org"}, "geometry": {"coordinates": [[3.355077, 6.51508], [3.354972, 6.515179], [3.355115, 6.515317], [3.35526, 6.515449], [3.355266, 6.515441], [3.3555, 6.515202], [3.355731, 6.514955], [3.355981, 6.514682], [3.3561, 6.51455], [3.356199, 6.514442], [3.356243, 6.514394], [3.356308, 6.514341], [3.356396, 6.514272], [3.356513, 6.514206], [3.356689, 6.514137], [3.356883, 6.514075], [3.357086, 6.514001], [3.35727, 6.513935], [3.357363, 6.513894], [3.35749, 6.51383], [3.357586, 6.513775], [3.357703, 6.513676], [3.357774, 6.513587], [3.357979, 6.513374], [3.358062, 6.513268], [3.358285, 6.512981], [3.358562, 6.512748], [3.358749, 6.512568], [3.358845, 6.512484], [3.358926, 6.512394], [3.358963, 6.512326], [3.358987, 6.512267], [3.358995, 6.512115], [3.358987, 6.512042], [3.358959, 6.5119], [3.358915, 6.511781], [3.358896, 6.511728], [3.358987, 6.511702], [3.359228, 6.51162], [3.35925, 6.511612], [3.35934, 6.511575], [3.359455, 6.511518], [3.359569, 6.511436], [3.359706, 6.511339], [3.359861, 6.511183], [3.35997, 6.511071], [3.360028, 6.511005], [3.360149, 6.510835], [3.360227, 6.510761], [3.360326, 6.510691], [3.360461, 6.510621], [3.360547, 6.510586], [3.360646, 6.510542], [3.360744, 6.510514], [3.36089, 6.510486], [3.361147, 6.510436], [3.361303, 6.510411], [3.361432, 6.510387], [3.361597, 6.510353], [3.36179, 6.510308], [3.361955, 6.510278], [3.362181, 6.510232], [3.362696, 6.510118], [3.363031, 6.510046], [3.36329, 6.510001], [3.363302, 6.510069], [3.363394, 6.510425], [3.363477, 6.510701], [3.363522, 6.510826], [3.363605, 6.511055], [3.363611, 6.511071], [3.363748, 6.511494], [3.363901, 6.511979], [3.363931, 6.512049], [3.364151, 6.51273], [3.364332, 6.513302], [3.364378, 6.513457], [3.36444, 6.513642], [3.36454, 6.513956], [3.364567, 6.51404], [3.364631, 6.514231], [3.365067, 6.515543], [3.365087, 6.515604], [3.365142, 6.515769], [3.365215, 6.515935], [3.36531, 6.516088], [3.365391, 6.516205], [3.365415, 6.51624], [3.36544, 6.516274], [3.36547, 6.516302], [3.365529, 6.516356], [3.365592, 6.516411], [3.365657, 6.516446], [3.365735, 6.51647], [3.365796, 6.516478], [3.365859, 6.516487], [3.365924, 6.516442], [3.366164, 6.516317], [3.366343, 6.516201], [3.366424, 6.516168], [3.36653, 6.516135], [3.366583, 6.516123], [3.366669, 6.516115], [3.366786, 6.516118], [3.366843, 6.516132], [3.367, 6.516146], [3.367242, 6.516186], [3.367554, 6.516244], [3.367695, 6.516272], [3.367826, 6.51632], [3.367917, 6.516326], [3.367975, 6.516332], [3.368007, 6.51634], [3.368223, 6.516465], [3.368372, 6.516509], [3.368585, 6.516569], [3.36874, 6.516632], [3.368883, 6.516689], [3.368989, 6.516747], [3.369145, 6.516833], [3.369297, 6.516898], [3.369589, 6.51701], [3.369821, 6.517105], [3.370062, 6.517193], [3.370181, 6.517236], [3.370303, 6.516854], [3.370442, 6.516492], [3.370509, 6.516308], [3.370554, 6.516187], [3.370569, 6.516099], [3.370603, 6.5159], [3.370636, 6.515659], [3.370664, 6.515454], [3.370674, 6.515158], [3.370673, 6.514853], [3.370459, 6.514805], [3.370418, 6.514767], [3.370383, 6.514721], [3.370291, 6.514664], [3.370122, 6.514684], [3.369967, 6.514701]], "type": "LineString"}}