{"type": "Feature", "properties": {"name": "rotterdam_r1", "distance_m": 1939.5, "duration_s": 291.1, "generated_from": "https://router.project-osrm.org"}, "geometry": {"coordinates": [[4.468459, 51.916998], [4.46846, 51.917089], [4.468495, 51.917803], [4.467674, 51.917825], [4.467514, 51.917144], [4.467504, 51.917106], [4.467492, 51.917059], [4.467427, 51.916777], [4.46726, 51.915764], [4.467267, 51.91575], [4.467412, 51.915784], [4.467899, 51.915897], [4.468459, 51.916028], [4.468473, 51.916031], [4.469034, 51.916157], [4.46962, 51.916289], [4.47013, 51.916411], [4.470959, 51.9166], [4.471606, 51.916748], [4.471652, 51.916749], [4.471773, 51.916744], [4.47203, 51.916783], [4.472589, 51.91691], [4.472728, 51.916939], [4.472781, 51.916885], [4.473197, 51.91649], [4.473222, 51.916468], [4.473256, 51.916438], [4.473296, 51.916401], [4.473388, 51.916319], [4.473553, 51.916163], [4.473762, 51.916205], [4.473799, 51.916212], [4.473902, 51.916224], [4.474093, 51.916262], [4.47417, 51.916277], [4.475369, 51.916506], [4.475434, 51.91652], [4.475936, 51.916625], [4.47669, 51.916779], [4.477147, 51.916875], [4.477388, 51.916937], [4.477446, 51.916952], [4.4775, 51.916968], [4.477667, 51.917014], [4.477595, 51.917083], [4.477534, 51.917142], [4.477455, 51.917217], [4.477384, 51.917292], [4.477354, 51.917318], [4.477283, 51.917383], [4.477199, 51.917458], [4.477043, 51.917599], [4.476781, 51.91784], [4.476681, 51.917941], [4.476608, 51.91801], [4.476362, 51.918276], [4.475899, 51.918758], [4.475462, 51.919227], [4.475428, 51.919264], [4.475385, 51.919335], [4.475359, 51.919377], [4.475343, 51.919405], [4.47532, 51.919446], [4.474945, 51.920148], [4.474849, 51.920318], [4.474804, 51.920388], [4.47496, 51.92042], [4.475213, 51.920471], [4.476373, 51.920699], [4.476885, 51.920805], [4.477304, 51.920892], [4.477781, 51.920028], [4.47789, 51.91983], [4.477928, 51.919762], [4.477971, 51.919682], [4.477989, 51.91965], [4.477995, 51.919639], [4.478015, 51.919598]], "type": "LineString"}}