{"type": "Feature", "properties": {"name": "rotterdam_r3", "distance_m": 1177.8, "duration_s": 169.7, "generated_from": "https://router.project-osrm.org"}, "geometry": {"coordinates": [[4.479916, 51.926375], [4.479644, 51.926445], [4.479634, 51.926458], [4.479596, 51.92673], [4.479766, 51.92676], [4.480793, 51.927073], [4.481202, 51.927193], [4.481337, 51.927256], [4.481516, 51.92746], [4.481599, 51.927554], [4.481955, 51.927953], [4.48212, 51.928188], [4.482115, 51.928254], [4.482053, 51.92831], [4.482018, 51.928342], [4.481996, 51.928361], [4.481926, 51.928424], [4.482016, 51.928473], [4.482138, 51.928549], [4.482214, 51.928612], [4.482289, 51.928686], [4.482483, 51.928921], [4.482496, 51.928991], [4.48253, 51.929036], [4.482625, 51.92914], [4.482654, 51.929169], [4.482716, 51.929222], [4.482776, 51.929258], [4.482894, 51.929345], [4.483643, 51.929931], [4.483689, 51.929954], [4.483735, 51.929972], [4.483779, 51.929982], [4.483813, 51.929988], [4.48386, 51.929994], [4.483892, 51.929993], [4.48392, 51.92999], [4.484018, 51.929981], [4.484979, 51.929864], [4.485065, 51.929857], [4.485159, 51.929852], [4.485219, 51.929854], [4.485266, 51.929857], [4.485307, 51.929861], [4.485345, 51.92987], [4.48537, 51.92988], [4.485416, 51.929912], [4.485438, 51.929929], [4.485487, 51.92998], [4.485503, 51.929993], [4.485528, 51.930006], [4.485552, 51.930016], [4.485577, 51.930023], [4.485601, 51.930027], [4.485632, 51.930029], [4.485761, 51.930031], [4.486185, 51.930041], [4.486237, 51.930045], [4.486291, 51.930049], [4.486397, 51.930058], [4.486397, 51.930045], [4.486397, 51.930033], [4.48641, 51.929975], [4.486431, 51.929863], [4.486435, 51.929805], [4.486427, 51.929737], [4.48641, 51.929665], [4.486395, 51.929613], [4.486358, 51.929482], [4.486354, 51.929338], [4.486368, 51.929192], [4.486385, 51.929138], [4.486446, 51.928943], [4.486468, 51.928774], [4.486483, 51.928653], [4.486489, 51.928615], [4.486537, 51.928104], [4.486576, 51.927889], [4.486596, 51.927721], [4.486601, 51.927656], [4.486601, 51.927569], [4.486601, 51.927553], [4.4866, 51.927516], [4.48659, 51.927462], [4.486575, 51.927392], [4.486558, 51.927264], [4.486562, 51.927171], [4.486571, 51.927129], [4.48658, 51.927092], [4.486652, 51.926976], [4.486675, 51.92693], [4.486673, 51.926821], [4.486652, 51.926821], [4.486528, 51.926821], [4.486427, 51.926822], [4.486361, 51.926821], [4.486189, 51.926759], [4.485937, 51.926697], [4.486066, 51.926542]], "type": "LineString"}}