{"type": "Feature", "properties": {"name": "rotterdam_r2", "distance_m": 3554.7, "duration_s": 454.2, "generated_from": "https://router.project-osrm.org"}, "geometry": {"coordinates": [[4.472963, 51.932961], [4.472958, 51.932963], [4.472859, 51.932988], [4.47284, 51.932994], [4.472714, 51.93303], [4.472697, 51.933036], [4.472648, 51.933056], [4.472634, 51.933062], [4.472496, 51.932962], [4.472258, 51.932789], [4.472173, 51.932726], [4.472103, 51.932674], [4.472085, 51.932645], [4.472078, 51.932611], [4.471804, 51.932435], [4.471746, 51.932398], [4.471472, 51.932235], [4.471273, 51.932118], [4.471191, 51.93207], [4.471098, 51.932012], [4.471019, 51.931963], [4.470673, 51.931736], [4.470391, 51.931537], [4.470309, 51.931474], [4.470026, 51.931241], [4.469911, 51.931136], [4.469875, 51.931108], [4.469837, 51.931074], [4.469806, 51.931049], [4.469739, 51.931001], [4.469636, 51.930943], [4.4696, 51.930919], [4.469492, 51.930851], [4.469438, 51.930791], [4.469413, 51.930766], [4.469333, 51.93069], [4.469277, 51.930621], [4.469023, 51.930439], [4.468603, 51.930084], [4.468367, 51.929879], [4.468126, 51.929717], [4.468002, 51.929638], [4.467636, 51.929407], [4.46712, 51.929042], [4.466761, 51.928765], [4.466656, 51.928681], [4.466132, 51.928247], [4.465991, 51.928121], [4.46594, 51.928083], [4.464912, 51.927322], [4.46481, 51.927246], [4.464302, 51.926871], [4.464241, 51.92683], [4.464169, 51.926794], [4.464091, 51.926766], [4.464031, 51.926755], [4.463955, 51.92676], [4.46364, 51.926704], [4.463406, 51.926683], [4.463354, 51.926678], [4.463226, 51.926662], [4.463045, 51.92664], [4.462927, 51.926626], [4.462867, 51.926618], [4.462717, 51.926599], [4.462212, 51.926526], [4.462006, 51.926491], [4.461967, 51.926485], [4.461869, 51.92647], [4.461582, 51.926428], [4.461349, 51.926388], [4.461378, 51.926318], [4.46139, 51.92629], [4.461398, 51.926269], [4.46142, 51.926216], [4.461454, 51.926132], [4.461473, 51.92609], [4.461573, 51.925874], [4.461615, 51.925773], [4.461725, 51.925531], [4.461732, 51.925346], [4.461795, 51.925108], [4.462013, 51.924354], [4.462303, 51.923367], [4.46244, 51.922959], [4.462506, 51.922748], [4.462527, 51.922698], [4.462542, 51.922662], [4.462573, 51.92259], [4.462622, 51.922481], [4.462655, 51.922401], [4.46267, 51.922362], [4.462707, 51.922263], [4.46274, 51.922164], [4.462747, 51.922145], [4.462783, 51.922027], [4.462808, 51.92196], [4.462874, 51.92175], [4.462981, 51.921355], [4.463049, 51.921073], [4.463052, 51.921051], [4.463111, 51.920681], [4.463156, 51.920309], [4.463181, 51.920064], [4.463181, 51.919936], [4.463178, 51.919846], [4.463255, 51.919752], [4.463239, 51.919594], [4.463223, 51.919459], [4.463195, 51.919226], [4.463192, 51.919202], [4.46319, 51.919162], [4.463186, 51.919104], [4.463178, 51.919067], [4.463169, 51.919014], [4.463164, 51.918986], [4.463154, 51.918931], [4.463334, 51.918959], [4.463466, 51.918978], [4.463532, 51.91899], [4.463972, 51.919073], [4.464419, 51.919167], [4.464511, 51.91919], [4.465074, 51.919356], [4.465406, 51.919491], [4.465599, 51.919577], [4.465976, 51.919801], [4.46615, 51.91987], [4.466303, 51.919913], [4.466354, 51.919927], [4.467146, 51.92007], [4.467223, 51.920084], [4.467478, 51.920126], [4.46772, 51.920165], [4.468166, 51.920238], [4.46837, 51.920272], [4.468643, 51.920322], [4.468801, 51.920349], [4.469242, 51.920426], [4.469888, 51.920533], [4.470043, 51.920574], [4.470281, 51.920637], [4.470462, 51.920687], [4.470913, 51.920821], [4.4712, 51.920897], [4.471298, 51.920922], [4.471316, 51.920867], [4.471524, 51.920215], [4.471605, 51.919777], [4.471735, 51.918786], [4.471821, 51.918437], [4.471923, 51.918089], [4.472203, 51.917482], [4.472341, 51.917337], [4.47259, 51.917073], [4.472647, 51.917015], [4.472667, 51.916996], [4.472672, 51.91699], [4.472682, 51.91698], [4.4727, 51.916963], [4.472728, 51.916939], [4.472781, 51.916885], [4.473197, 51.91649], [4.473222, 51.916468], [4.473256, 51.916438], [4.473296, 51.916401], [4.473388, 51.916319], [4.473553, 51.916163], [4.473762, 51.916205], [4.473799, 51.916212], [4.473902, 51.916224], [4.473701, 51.916392], [4.473645, 51.916473], [4.473613, 51.916505], [4.473538, 51.916579], [4.473137, 51.916973], [4.473072, 51.917043], [4.473032, 51.917092], [4.472981, 51.917162], [4.472949, 51.917244], [4.47286, 51.917458], [4.472845, 51.917501], [4.472626, 51.918199], [4.472531, 51.918518], [4.472461, 51.918749], [4.472456, 51.918768], [4.472451, 51.918786], [4.472436, 51.918838], [4.472424, 51.918875], [4.472267, 51.919419]], "type": "LineString"}}