{"type": "Feature", "properties": {"name": "toronto_r1", "distance_m": 5461.5, "duration_s": 615.4, "generated_from": "https://router.project-osrm.org"}, "geometry": {"coordinates": [[-79.378733, 43.642835], [-79.379966, 43.642182], [-79.381224, 43.641538], [-79.381943, 43.641178], [-79.382281, 43.641023], [-79.382562, 43.640892], [-79.382851, 43.640772], [-79.383125, 43.640667], [-79.383425, 43.640555], [-79.383786, 43.640435], [-79.384209, 43.640318], [-79.384727, 43.640181], [-79.385192, 43.640081], [-79.387032, 43.639671], [-79.387793, 43.639522], [-79.388315, 43.639494], [-79.388641, 43.639466], [-79.389247, 43.639394], [-79.38955, 43.639361], [-79.389852, 43.639316], [-79.390292, 43.6392], [-79.390755, 43.639111], [-79.391337, 43.639001], [-79.391786, 43.638928], [-79.391882, 43.638917], [-79.391973, 43.638928], [-79.392009, 43.638937], [-79.392043, 43.63895], [-79.392097, 43.638984], [-79.392212, 43.639142], [-79.392283, 43.639282], [-79.392386, 43.639486], [-79.392466, 43.639651], [-79.392562, 43.639903], [-79.392659, 43.639978], [-79.392826, 43.640444], [-79.392851, 43.640511], [-79.392869, 43.640565], [-79.392901, 43.640666], [-79.392926, 43.64073], [-79.393183, 43.641371], [-79.393253, 43.641542], [-79.393596, 43.642373], [-79.393711, 43.642639], [-79.393775, 43.642789], [-79.393815, 43.642895], [-79.393933, 43.64317], [-79.393981, 43.64328], [-79.394109, 43.643515], [-79.394157, 43.643608], [-79.39433, 43.644038], [-79.394388, 43.644178], [-79.39443, 43.64428], [-79.394442, 43.644306], [-79.394493, 43.644443], [-79.394542, 43.644569], [-79.394608, 43.644738], [-79.394647, 43.644839], [-79.394744, 43.645109], [-79.394784, 43.645219], [-79.394843, 43.645377], [-79.394854, 43.645408], [-79.394881, 43.645463], [-79.394889, 43.645481], [-79.394892, 43.645487], [-79.394893, 43.645491], [-79.394898, 43.645502], [-79.394901, 43.645508], [-79.394911, 43.645529], [-79.39494, 43.645585], [-79.39499, 43.64571], [-79.395102, 43.645976], [-79.395218, 43.646245], [-79.395391, 43.646659], [-79.395408, 43.646699], [-79.395422, 43.64673], [-79.395444, 43.646775], [-79.395444, 43.646775], [-79.395477, 43.646851], [-79.395643, 43.647277], [-79.3957, 43.647423], [-79.395811, 43.647688], [-79.395826, 43.647724], [-79.395844, 43.647766], [-79.39588, 43.64784], [-79.395909, 43.647899], [-79.395929, 43.64794], [-79.396064, 43.648255], [-79.396102, 43.648357], [-79.396216, 43.648668], [-79.396226, 43.648695], [-79.396244, 43.648737], [-79.396254, 43.648759], [-79.396259, 43.648771], [-79.39626, 43.648774], [-79.396262, 43.648778], [-79.396265, 43.648787], [-79.396276, 43.648813], [-79.396303, 43.648877], [-79.396543, 43.649452], [-79.396683, 43.649794], [-79.396802, 43.650082], [-79.39693, 43.650424], [-79.396957, 43.650496], [-79.397075, 43.65081], [-79.397093, 43.650856], [-79.397121, 43.650913], [-79.397146, 43.650968], [-79.397498, 43.651844], [-79.397521, 43.651905], [-79.397709, 43.652374], [-79.397897, 43.65283], [-79.397911, 43.652865], [-79.397942, 43.652946], [-79.397947, 43.65296], [-79.397949, 43.652966], [-79.397952, 43.652973], [-79.397966, 43.65301], [-79.397986, 43.653062], [-79.398329, 43.653954], [-79.398475, 43.654318], [-79.39849, 43.654358], [-79.39852, 43.654421], [-79.398546, 43.654486], [-79.398723, 43.654927], [-79.399014, 43.655745], [-79.399031, 43.655792], [-79.399065, 43.655885], [-79.399111, 43.656003], [-79.39916, 43.656133], [-79.399706, 43.657419], [-79.399729, 43.65747], [-79.399867, 43.657798], [-79.399873, 43.657813], [-79.399883, 43.657837], [-79.399896, 43.657874], [-79.399911, 43.657916], [-79.399916, 43.65793], [-79.399923, 43.65795], [-79.399943, 43.657997], [-79.399974, 43.65807], [-79.399982, 43.658091], [-79.400099, 43.658383], [-79.400132, 43.658467], [-79.400279, 43.658818], [-79.400308, 43.658892], [-79.400326, 43.658948], [-79.400335, 43.658986], [-79.400336, 43.659025], [-79.400328, 43.659063], [-79.400313, 43.659097], [-79.400291, 43.65913], [-79.400263, 43.65916], [-79.400229, 43.659186], [-79.400154, 43.65923], [-79.400085, 43.659279], [-79.400025, 43.659334], [-79.399974, 43.659393], [-79.399932, 43.659457], [-79.3999, 43.659523], [-79.399878, 43.659591], [-79.39987, 43.659644], [-79.399866, 43.659667], [-79.399867, 43.659718], [-79.399874, 43.659774], [-79.399887, 43.65983], [-79.399916, 43.659902], [-79.399956, 43.659972], [-79.400008, 43.660037], [-79.40007, 43.660097], [-79.400124, 43.660138], [-79.400142, 43.660151], [-79.400222, 43.660199], [-79.400309, 43.660239], [-79.400403, 43.660272], [-79.400501, 43.660296], [-79.400603, 43.660312], [-79.400665, 43.660329], [-79.400732, 43.660352], [-79.400782, 43.660379], [-79.400834, 43.660412], [-79.400878, 43.660441], [-79.400911, 43.660473], [-79.400937, 43.660498], [-79.400969, 43.660551], [-79.40102, 43.660651], [-79.401247, 43.661204], [-79.401261, 43.661237], [-79.40129, 43.661317], [-79.401318, 43.661389], [-79.401649, 43.662227], [-79.401773, 43.662534], [-79.401945, 43.662977], [-79.401956, 43.663006], [-79.401995, 43.663094], [-79.402026, 43.663168], [-79.40231, 43.663887], [-79.40258, 43.664561], [-79.402592, 43.664589], [-79.40262, 43.66467], [-79.40265, 43.664741], [-79.402964, 43.665534], [-79.403029, 43.665688], [-79.403112, 43.665839], [-79.403172, 43.665921], [-79.403217, 43.665979], [-79.403294, 43.666067], [-79.403401, 43.666182], [-79.403515, 43.66622], [-79.403624, 43.666381], [-79.40375, 43.666569], [-79.403816, 43.666669], [-79.40368, 43.666694], [-79.403462, 43.666736], [-79.403089, 43.66682], [-79.402679, 43.666913], [-79.401886, 43.667086], [-79.401605, 43.667147], [-79.40151, 43.667166], [-79.40141, 43.667188], [-79.401186, 43.667236], [-79.400561, 43.66737], [-79.400162, 43.667455], [-79.399943, 43.667501], [-79.399825, 43.667527], [-79.399702, 43.667552], [-79.399594, 43.667575], [-79.399282, 43.667637], [-79.398313, 43.66784], [-79.397849, 43.667939], [-79.397498, 43.668014], [-79.397393, 43.668036], [-79.397415, 43.668097], [-79.397427, 43.668132], [-79.397601, 43.668588], [-79.397676, 43.668772], [-79.397683, 43.668789], [-79.397696, 43.668822], [-79.397845, 43.669189], [-79.397882, 43.669257], [-79.39791, 43.669325], [-79.398019, 43.669583], [-79.398038, 43.669631], [-79.398108, 43.669805], [-79.398158, 43.669929], [-79.398198, 43.670029], [-79.398231, 43.670109], [-79.39828, 43.670283], [-79.39828, 43.670337], [-79.398275, 43.670419], [-79.398286, 43.670605], [-79.398319, 43.67074], [-79.398393, 43.670902], [-79.398519, 43.671235], [-79.398431, 43.671254], [-79.398375, 43.671267], [-79.397407, 43.671477]], "type": "LineString"}}