{"type": "Feature", "properties": {"name": "toronto_r3", "distance_m": 4177.7, "duration_s": 491.6, "generated_from": "https://router.project-osrm.org"}, "geometry": {"coordinates": [[-79.397407, 43.671477], [-79.39564, 43.67186], [-79.395597, 43.671869], [-79.39545, 43.671896], [-79.395088, 43.67101], [-79.394846, 43.670442], [-79.394815, 43.670381], [-79.394789, 43.670323], [-79.394614, 43.669928], [-79.394478, 43.669596], [-79.394447, 43.669514], [-79.394386, 43.669359], [-79.394359, 43.669286], [-79.394175, 43.66881], [-79.39413, 43.668702], [-79.394087, 43.668599], [-79.393941, 43.668237], [-79.393767, 43.667824], [-79.393736, 43.667744], [-79.393616, 43.667463], [-79.393523, 43.667249], [-79.393291, 43.666671], [-79.393179, 43.666406], [-79.393159, 43.666368], [-79.393149, 43.666311], [-79.39314, 43.666245], [-79.393142, 43.666216], [-79.393146, 43.666188], [-79.393158, 43.66612], [-79.393161, 43.666103], [-79.393203, 43.666014], [-79.393266, 43.66594], [-79.39333, 43.665877], [-79.393504, 43.665759], [-79.393634, 43.665649], [-79.393683, 43.665598], [-79.39373, 43.66554], [-79.393777, 43.665472], [-79.393823, 43.665385], [-79.393853, 43.665321], [-79.393883, 43.665247], [-79.393916, 43.665106], [-79.393915, 43.665037], [-79.393896, 43.664956], [-79.393876, 43.664889], [-79.39385, 43.664798], [-79.393796, 43.664673], [-79.393622, 43.664214], [-79.393507, 43.663907], [-79.393496, 43.663878], [-79.393239, 43.663271], [-79.393113, 43.662943], [-79.393007, 43.662675], [-79.392944, 43.662537], [-79.392905, 43.662487], [-79.392864, 43.662431], [-79.392618, 43.662111], [-79.392479, 43.66192], [-79.392447, 43.661867], [-79.392206, 43.661393], [-79.392113, 43.661223], [-79.392053, 43.661148], [-79.391894, 43.661017], [-79.391857, 43.660987], [-79.391781, 43.660934], [-79.391599, 43.66083], [-79.391457, 43.660759], [-79.391284, 43.660697], [-79.391142, 43.660642], [-79.391063, 43.660606], [-79.391003, 43.660574], [-79.390945, 43.660533], [-79.390896, 43.660495], [-79.39085, 43.660445], [-79.390823, 43.660407], [-79.390687, 43.660072], [-79.390628, 43.659929], [-79.390596, 43.65984], [-79.390591, 43.659826], [-79.390585, 43.659812], [-79.390553, 43.659728], [-79.390318, 43.659214], [-79.390085, 43.658677], [-79.389906, 43.658253], [-79.389887, 43.658209], [-79.389635, 43.657618], [-79.389596, 43.65753], [-79.389553, 43.657434], [-79.389452, 43.65718], [-79.389305, 43.656819], [-79.389135, 43.656402], [-79.389096, 43.656306], [-79.38906, 43.656216], [-79.388739, 43.655428], [-79.388519, 43.65492], [-79.388481, 43.654827], [-79.388475, 43.654813], [-79.38847, 43.6548], [-79.388421, 43.65468], [-79.387795, 43.653186], [-79.387743, 43.653068], [-79.387407, 43.652278], [-79.386812, 43.650883], [-79.386782, 43.650817], [-79.386776, 43.650803], [-79.38677, 43.650789], [-79.386739, 43.650717], [-79.386505, 43.650174], [-79.386491, 43.650144], [-79.386472, 43.650105], [-79.386444, 43.650049], [-79.386424, 43.650011], [-79.386402, 43.649972], [-79.386166, 43.649648], [-79.386054, 43.6495], [-79.385868, 43.649272], [-79.385614, 43.648943], [-79.385519, 43.648881], [-79.385506, 43.64886], [-79.385476, 43.648814], [-79.385462, 43.648788], [-79.385324, 43.64854], [-79.385175, 43.648272], [-79.384857, 43.647738], [-79.384822, 43.647678], [-79.384814, 43.647664], [-79.384807, 43.647652], [-79.384772, 43.64759], [-79.384168, 43.64654], [-79.38413, 43.646474], [-79.384086, 43.646388], [-79.384045, 43.646316], [-79.38378, 43.64587], [-79.383789, 43.645807], [-79.383788, 43.645756], [-79.383781, 43.645716], [-79.38377, 43.645682], [-79.38375, 43.645624], [-79.383699, 43.645536], [-79.383598, 43.645357], [-79.383524, 43.645227], [-79.383501, 43.64521], [-79.383476, 43.645194], [-79.383433, 43.645109], [-79.383558, 43.645081], [-79.383991, 43.644995], [-79.38457, 43.644864], [-79.384789, 43.644815], [-79.384875, 43.644795], [-79.384992, 43.64477], [-79.385164, 43.644736], [-79.388567, 43.644003], [-79.388655, 43.643984], [-79.388772, 43.643958], [-79.389265, 43.643853], [-79.389367, 43.643835], [-79.389648, 43.643778], [-79.389726, 43.643764], [-79.389974, 43.64371], [-79.390577, 43.643576], [-79.39105, 43.643475], [-79.391135, 43.643456], [-79.391238, 43.643431], [-79.391366, 43.6434], [-79.392496, 43.643114], [-79.392995, 43.642989]], "type": "LineString"}}