{"type": "Feature", "properties": {"name": "toronto_r2", "distance_m": 2250.9, "duration_s": 302.6, "generated_from": "https://router.project-osrm.org"}, "geometry": {"coordinates": [[-79.397507, 43.648517], [-79.397408, 43.648537], [-79.396624, 43.648698], [-79.396575, 43.648708], [-79.396481, 43.648726], [-79.396476, 43.648728], [-79.396472, 43.648728], [-79.396391, 43.648745], [-79.396353, 43.648753], [-79.396274, 43.648771], [-79.39627, 43.648772], [-79.39626, 43.648774], [-79.396142, 43.648798], [-79.396105, 43.648805], [-79.393796, 43.649297], [-79.393769, 43.649303], [-79.393646, 43.649328], [-79.393547, 43.649348], [-79.393415, 43.649375], [-79.393294, 43.649401], [-79.392115, 43.64965], [-79.391177, 43.649848], [-79.391083, 43.649868], [-79.390987, 43.649889], [-79.38979, 43.650142], [-79.389782, 43.650143], [-79.389696, 43.650162], [-79.389588, 43.650185], [-79.389581, 43.650187], [-79.389446, 43.650216], [-79.388683, 43.650383], [-79.388596, 43.6504], [-79.388496, 43.650422], [-79.387501, 43.650647], [-79.387437, 43.650661], [-79.386903, 43.650775], [-79.386776, 43.650803], [-79.386621, 43.650837], [-79.386439, 43.650876], [-79.386302, 43.650905], [-79.385016, 43.651184], [-79.385006, 43.651187], [-79.38491, 43.651208], [-79.384809, 43.651229], [-79.38454, 43.651285], [-79.384458, 43.651303], [-79.38442, 43.651311], [-79.384303, 43.651336], [-79.383687, 43.65147], [-79.382457, 43.651737], [-79.382042, 43.651825], [-79.381734, 43.651889], [-79.381716, 43.65188], [-79.381681, 43.651863], [-79.38162, 43.651826], [-79.381577, 43.651772], [-79.381529, 43.651696], [-79.381336, 43.651262], [-79.381326, 43.651234], [-79.381312, 43.651199], [-79.381302, 43.651174], [-79.381275, 43.651108], [-79.38105, 43.650568], [-79.380814, 43.649995], [-79.380785, 43.649922], [-79.380679, 43.649944], [-79.380262, 43.650034], [-79.380104, 43.650068], [-79.38006, 43.650078], [-79.379557, 43.650185], [-79.37917, 43.650269], [-79.379089, 43.650286], [-79.378529, 43.650408], [-79.378427, 43.650429], [-79.378327, 43.650449], [-79.377921, 43.650537], [-79.37733, 43.650666], [-79.377311, 43.650671], [-79.377225, 43.650691], [-79.377255, 43.650758], [-79.377258, 43.650765], [-79.377261, 43.650772], [-79.377489, 43.651315], [-79.3776, 43.651581], [-79.377732, 43.651882], [-79.37776, 43.651949], [-79.377771, 43.651975], [-79.377784, 43.652005], [-79.377798, 43.652036], [-79.378032, 43.652598], [-79.378034, 43.652603], [-79.378036, 43.652609], [-79.37806, 43.652666], [-79.378065, 43.652677], [-79.378071, 43.652692], [-79.378097, 43.652751], [-79.378098, 43.652753], [-79.37853, 43.65379], [-79.378641, 43.654057]], "type": "LineString"}}